FLOCK 4BE-34            
1 60495U 24149AD  26062.47033624  .00020008  00000+0  54163-3 0  9990
2 60495  97.3835 146.0324 0002284 294.2308  65.8698 15.37715066 86068
FLOCK 4BE-32            
1 60497U 24149AF  26062.16503376  .00023823  00000+0  63536-3 0  9996
2 60497  97.3778 145.2321 0002626 294.4980  65.5991 15.38140529 86017
FLOCK 4BE-30            
1 60499U 24149AH  26062.17544042  .00021275  00000+0  57099-3 0  9990
2 60499  97.3859 145.7996 0001976 293.5337  66.5700 15.37970357 85393
FLOCK 4BE-11            
1 60501U 24149AK  26062.21695236  .00023717  00000+0  61607-3 0  9994
2 60501  97.3761 145.4090 0003009 293.0445  67.0482 15.38953267 86032
FLOCK 4BE-24            
1 60505U 24149AP  26062.45809763  .00023270  00000+0  60689-3 0  9999
2 60505  97.3775 145.8973 0002893 302.8428  57.2538 15.38834448 86082
TANAGER-1               
1 60507U 24149AR  26062.34010779  .00005195  00000+0  11793-3 0  9998
2 60507  97.3800 155.6291 0007094 222.8043 137.2653 15.43478970 86703
FLOCK 4BE-29            
1 60509U 24149AT  26062.23001920  .00025152  00000+0  62950-3 0  9992
2 60509  97.3859 146.7954 0002052 325.2719  34.8393 15.40083389 86080
FLOCK 4BE-2             
1 60511U 24149AV  26062.20864259  .00050462  00000+0  11601-2 0  9992
2 60511  97.3864 147.3271 0002639 301.8445  58.2545 15.42501428 86119
FLOCK 4BE-13            
1 60512U 24149AW  26062.46314146  .00022093  00000+0  58216-3 0  9999
2 60512  97.3775 146.0063 0003454 293.6928  66.3954 15.38525790 86090
FLOCK 4BE-27            
1 60513U 24149AX  26062.22390847  .00012541  00000+0  40291-3 0  9997
2 60513  97.3883 144.1607 0003050 338.0393  22.0718 15.32413899 85902
FLOCK 4BE-9             
1 60514U 24149AY  26062.44363652  .00019828  00000+0  54372-3 0  9996
2 60514  97.3847 145.9408 0001676 333.5263  26.5896 15.37318618 86050
FLOCK 4BE-6             
1 60516U 24149BA  26062.46341081  .00018003  00000+0  50927-3 0  9998
2 60516  97.3848 145.4949 0002354 322.4307  37.6773 15.36367648 86028
FLOCK 4BE-14            
1 60517U 24149BB  26062.46627429  .00020328  00000+0  55570-3 0  9994
2 60517  97.3759 145.5677 0003240 318.2649  41.8348 15.37405755 86068
FLOCK 4BE-1             
1 60518U 24149BC  26062.19286660  .00023333  00000+0  61219-3 0  9999
2 60518  97.3835 146.2185 0003156 315.7347  44.3646 15.38648311 86055
FLOCK 4BE-28            
1 60519U 24149BD  26062.16270374  .00025333  00000+0  62250-3 0  9990
2 60519  97.3801 146.6057 0003556 314.6766  45.4190 15.40637007 86091
FLOCK 4BE-35            
1 60558U 24149CU  26062.22323298  .00092845  00000+0  21393-2 0  9998
2 60558  97.3808 145.3845 0004419 278.3933  81.6813 15.42241325 86004
FLOCK 4BE-5             
1 60559U 24149CV  26062.47651355  .00022160  00000+0  61943-3 0  9993
2 60559  97.3894 145.7090 0002525 323.1887  36.9183 15.36696797 86024
