[{"OBJECT_NAME":"FLOCK 4BE-34","OBJECT_ID":"2024-149AD","EPOCH":"2026-03-03T11:17:17.051136","MEAN_MOTION":15.37715066,"ECCENTRICITY":0.0002284,"INCLINATION":97.3835,"RA_OF_ASC_NODE":146.0324,"ARG_OF_PERICENTER":294.2308,"MEAN_ANOMALY":65.8698,"EPHEMERIS_TYPE":0,"CLASSIFICATION_TYPE":"U","NORAD_CAT_ID":60495,"ELEMENT_SET_NO":999,"REV_AT_EPOCH":8606,"BSTAR":0.00054163,"MEAN_MOTION_DOT":0.00020008,"MEAN_MOTION_DDOT":0},{"OBJECT_NAME":"FLOCK 4BE-32","OBJECT_ID":"2024-149AF","EPOCH":"2026-03-03T03:57:38.916864","MEAN_MOTION":15.38140529,"ECCENTRICITY":0.0002626,"INCLINATION":97.3778,"RA_OF_ASC_NODE":145.2321,"ARG_OF_PERICENTER":294.498,"MEAN_ANOMALY":65.5991,"EPHEMERIS_TYPE":0,"CLASSIFICATION_TYPE":"U","NORAD_CAT_ID":60497,"ELEMENT_SET_NO":999,"REV_AT_EPOCH":8601,"BSTAR":0.00063536,"MEAN_MOTION_DOT":0.00023823,"MEAN_MOTION_DDOT":0},{"OBJECT_NAME":"FLOCK 4BE-30","OBJECT_ID":"2024-149AH","EPOCH":"2026-03-03T04:12:38.052288","MEAN_MOTION":15.37970357,"ECCENTRICITY":0.0001976,"INCLINATION":97.3859,"RA_OF_ASC_NODE":145.7996,"ARG_OF_PERICENTER":293.5337,"MEAN_ANOMALY":66.57,"EPHEMERIS_TYPE":0,"CLASSIFICATION_TYPE":"U","NORAD_CAT_ID":60499,"ELEMENT_SET_NO":999,"REV_AT_EPOCH":8539,"BSTAR":0.00057099,"MEAN_MOTION_DOT":0.00021275,"MEAN_MOTION_DDOT":0},{"OBJECT_NAME":"FLOCK 4BE-11","OBJECT_ID":"2024-149AK","EPOCH":"2026-03-03T05:12:24.683904","MEAN_MOTION":15.38953267,"ECCENTRICITY":0.0003009,"INCLINATION":97.3761,"RA_OF_ASC_NODE":145.409,"ARG_OF_PERICENTER":293.0445,"MEAN_ANOMALY":67.0482,"EPHEMERIS_TYPE":0,"CLASSIFICATION_TYPE":"U","NORAD_CAT_ID":60501,"ELEMENT_SET_NO":999,"REV_AT_EPOCH":8603,"BSTAR":0.00061607,"MEAN_MOTION_DOT":0.00023717,"MEAN_MOTION_DDOT":0},{"OBJECT_NAME":"FLOCK 4BE-24","OBJECT_ID":"2024-149AP","EPOCH":"2026-03-03T10:59:39.635232","MEAN_MOTION":15.38834448,"ECCENTRICITY":0.0002893,"INCLINATION":97.3775,"RA_OF_ASC_NODE":145.8973,"ARG_OF_PERICENTER":302.8428,"MEAN_ANOMALY":57.2538,"EPHEMERIS_TYPE":0,"CLASSIFICATION_TYPE":"U","NORAD_CAT_ID":60505,"ELEMENT_SET_NO":999,"REV_AT_EPOCH":8608,"BSTAR":0.00060689,"MEAN_MOTION_DOT":0.0002327,"MEAN_MOTION_DDOT":0},{"OBJECT_NAME":"TANAGER-1","OBJECT_ID":"2024-149AR","EPOCH":"2026-03-03T08:09:45.313056","MEAN_MOTION":15.4347897,"ECCENTRICITY":0.0007094,"INCLINATION":97.38,"RA_OF_ASC_NODE":155.6291,"ARG_OF_PERICENTER":222.8043,"MEAN_ANOMALY":137.2653,"EPHEMERIS_TYPE":0,"CLASSIFICATION_TYPE":"U","NORAD_CAT_ID":60507,"ELEMENT_SET_NO":999,"REV_AT_EPOCH":8670,"BSTAR":0.00011793,"MEAN_MOTION_DOT":5.195e-5,"MEAN_MOTION_DDOT":0},{"OBJECT_NAME":"FLOCK 4BE-29","OBJECT_ID":"2024-149AT","EPOCH":"2026-03-03T05:31:13.658880","MEAN_MOTION":15.40083389,"ECCENTRICITY":0.0002052,"INCLINATION":97.3859,"RA_OF_ASC_NODE":146.7954,"ARG_OF_PERICENTER":325.2719,"MEAN_ANOMALY":34.8393,"EPHEMERIS_TYPE":0,"CLASSIFICATION_TYPE":"U","NORAD_CAT_ID":60509,"ELEMENT_SET_NO":999,"REV_AT_EPOCH":8608,"BSTAR":0.0006295,"MEAN_MOTION_DOT":0.00025152,"MEAN_MOTION_DDOT":0},{"OBJECT_NAME":"FLOCK 4BE-2","OBJECT_ID":"2024-149AV","EPOCH":"2026-03-03T05:00:26.719776","MEAN_MOTION":15.42501428,"ECCENTRICITY":0.0002639,"INCLINATION":97.3864,"RA_OF_ASC_NODE":147.3271,"ARG_OF_PERICENTER":301.8445,"MEAN_ANOMALY":58.2545,"EPHEMERIS_TYPE":0,"CLASSIFICATION_TYPE":"U","NORAD_CAT_ID":60511,"ELEMENT_SET_NO":999,"REV_AT_EPOCH":8611,"BSTAR":0.0011601,"MEAN_MOTION_DOT":0.00050462,"MEAN_MOTION_DDOT":0},{"OBJECT_NAME":"FLOCK 4BE-13","OBJECT_ID":"2024-149AW","EPOCH":"2026-03-03T11:06:55.422144","MEAN_MOTION":15.3852579,"ECCENTRICITY":0.0003454,"INCLINATION":97.3775,"RA_OF_ASC_NODE":146.0063,"ARG_OF_PERICENTER":293.6928,"MEAN_ANOMALY":66.3954,"EPHEMERIS_TYPE":0,"CLASSIFICATION_TYPE":"U","NORAD_CAT_ID":60512,"ELEMENT_SET_NO":999,"REV_AT_EPOCH":8609,"BSTAR":0.00058216,"MEAN_MOTION_DOT":0.00022093,"MEAN_MOTION_DDOT":0},{"OBJECT_NAME":"FLOCK 4BE-27","OBJECT_ID":"2024-149AX","EPOCH":"2026-03-03T05:22:25.691808","MEAN_MOTION":15.32413899,"ECCENTRICITY":0.000305,"INCLINATION":97.3883,"RA_OF_ASC_NODE":144.1607,"ARG_OF_PERICENTER":338.0393,"MEAN_ANOMALY":22.0718,"EPHEMERIS_TYPE":0,"CLASSIFICATION_TYPE":"U","NORAD_CAT_ID":60513,"ELEMENT_SET_NO":999,"REV_AT_EPOCH":8590,"BSTAR":0.00040291,"MEAN_MOTION_DOT":0.00012541,"MEAN_MOTION_DDOT":0},{"OBJECT_NAME":"FLOCK 4BE-9","OBJECT_ID":"2024-149AY","EPOCH":"2026-03-03T10:38:50.195328","MEAN_MOTION":15.37318618,"ECCENTRICITY":0.0001676,"INCLINATION":97.3847,"RA_OF_ASC_NODE":145.9408,"ARG_OF_PERICENTER":333.5263,"MEAN_ANOMALY":26.5896,"EPHEMERIS_TYPE":0,"CLASSIFICATION_TYPE":"U","NORAD_CAT_ID":60514,"ELEMENT_SET_NO":999,"REV_AT_EPOCH":8605,"BSTAR":0.00054372,"MEAN_MOTION_DOT":0.00019828,"MEAN_MOTION_DDOT":0},{"OBJECT_NAME":"FLOCK 4BE-6","OBJECT_ID":"2024-149BA","EPOCH":"2026-03-03T11:07:18.693984","MEAN_MOTION":15.36367648,"ECCENTRICITY":0.0002354,"INCLINATION":97.3848,"RA_OF_ASC_NODE":145.4949,"ARG_OF_PERICENTER":322.4307,"MEAN_ANOMALY":37.6773,"EPHEMERIS_TYPE":0,"CLASSIFICATION_TYPE":"U","NORAD_CAT_ID":60516,"ELEMENT_SET_NO":999,"REV_AT_EPOCH":8602,"BSTAR":0.00050927,"MEAN_MOTION_DOT":0.00018003,"MEAN_MOTION_DDOT":0},{"OBJECT_NAME":"FLOCK 4BE-14","OBJECT_ID":"2024-149BB","EPOCH":"2026-03-03T11:11:26.098656","MEAN_MOTION":15.37405755,"ECCENTRICITY":0.000324,"INCLINATION":97.3759,"RA_OF_ASC_NODE":145.5677,"ARG_OF_PERICENTER":318.2649,"MEAN_ANOMALY":41.8348,"EPHEMERIS_TYPE":0,"CLASSIFICATION_TYPE":"U","NORAD_CAT_ID":60517,"ELEMENT_SET_NO":999,"REV_AT_EPOCH":8606,"BSTAR":0.0005557,"MEAN_MOTION_DOT":0.00020328,"MEAN_MOTION_DDOT":0},{"OBJECT_NAME":"FLOCK 4BE-1","OBJECT_ID":"2024-149BC","EPOCH":"2026-03-03T04:37:43.674240","MEAN_MOTION":15.38648311,"ECCENTRICITY":0.0003156,"INCLINATION":97.3835,"RA_OF_ASC_NODE":146.2185,"ARG_OF_PERICENTER":315.7347,"MEAN_ANOMALY":44.3646,"EPHEMERIS_TYPE":0,"CLASSIFICATION_TYPE":"U","NORAD_CAT_ID":60518,"ELEMENT_SET_NO":999,"REV_AT_EPOCH":8605,"BSTAR":0.00061219,"MEAN_MOTION_DOT":0.00023333,"MEAN_MOTION_DDOT":0},{"OBJECT_NAME":"FLOCK 4BE-28","OBJECT_ID":"2024-149BD","EPOCH":"2026-03-03T03:54:17.603136","MEAN_MOTION":15.40637007,"ECCENTRICITY":0.0003556,"INCLINATION":97.3801,"RA_OF_ASC_NODE":146.6057,"ARG_OF_PERICENTER":314.6766,"MEAN_ANOMALY":45.419,"EPHEMERIS_TYPE":0,"CLASSIFICATION_TYPE":"U","NORAD_CAT_ID":60519,"ELEMENT_SET_NO":999,"REV_AT_EPOCH":8609,"BSTAR":0.0006225,"MEAN_MOTION_DOT":0.00025333,"MEAN_MOTION_DDOT":0},{"OBJECT_NAME":"FLOCK 4BE-35","OBJECT_ID":"2024-149CU","EPOCH":"2026-03-03T05:21:27.329472","MEAN_MOTION":15.42241325,"ECCENTRICITY":0.0004419,"INCLINATION":97.3808,"RA_OF_ASC_NODE":145.3845,"ARG_OF_PERICENTER":278.3933,"MEAN_ANOMALY":81.6813,"EPHEMERIS_TYPE":0,"CLASSIFICATION_TYPE":"U","NORAD_CAT_ID":60558,"ELEMENT_SET_NO":999,"REV_AT_EPOCH":8600,"BSTAR":0.0021393,"MEAN_MOTION_DOT":0.00092845,"MEAN_MOTION_DDOT":0},{"OBJECT_NAME":"FLOCK 4BE-5","OBJECT_ID":"2024-149CV","EPOCH":"2026-03-03T11:26:10.770720","MEAN_MOTION":15.36696797,"ECCENTRICITY":0.0002525,"INCLINATION":97.3894,"RA_OF_ASC_NODE":145.709,"ARG_OF_PERICENTER":323.1887,"MEAN_ANOMALY":36.9183,"EPHEMERIS_TYPE":0,"CLASSIFICATION_TYPE":"U","NORAD_CAT_ID":60559,"ELEMENT_SET_NO":999,"REV_AT_EPOCH":8602,"BSTAR":0.00061943,"MEAN_MOTION_DOT":0.0002216,"MEAN_MOTION_DDOT":0}]
